STARLINK-36623          
1 67644U 26020AD  26036.91670139 -.01693183  83094-3 -38585-2 0  9991
2 67644  43.0003 335.5800 0001534 254.9004 264.1703 15.96640943  2282
STARLINK-36619          
1 67645U 26020AE  26036.91670139 -.01696338  83245-3 -38992-2 0  9997
2 67645  43.0004 335.5852 0001573 259.4376 257.6295 15.96484085  2282
ALSAT-3B                
1 67646U 26021A   26036.92591172  .00009958  00000+0  41983-3 0  9991
2 67646  97.4726 111.3982 0011412 243.7729 116.2335 15.23462404   882
CZ-2C R/B               
1 67647U 26021B   26036.92769776  .00018782  00000+0  56951-3 0  9995
2 67647  97.6566 111.7558 0154249 121.5076 240.1335 15.23194697   865
2026-023E               
1 67678U 26023E   26037.04281740  .00006547  00000+0  28625-3 0  9998
2 67678  96.6391 113.6651 0018142 239.5703 120.3743 15.22213970    33
