CCSDS_OMM_VERS = 2.0
CREATION_DATE  = 
ORIGINATOR     = 

OBJECT_NAME    = STARLINK-36623
OBJECT_ID      = 2026-020AD
CENTER_NAME    = EARTH
REF_FRAME      = TEME
TIME_SYSTEM    = UTC
MEAN_ELEMENT_THEORY = SGP/SGP4

EPOCH          = 2026-02-05T22:00:03.000096
MEAN_MOTION    = 15.96640943
ECCENTRICITY   = .00015348
INCLINATION    = 43.0003
RA_OF_ASC_NODE = 335.5800
ARG_OF_PERICENTER = 254.9004
MEAN_ANOMALY   = 264.1703

EPHEMERIS_TYPE = 0
CLASSIFICATION_TYPE = U
NORAD_CAT_ID   = 67644
ELEMENT_SET_NO = 999
REV_AT_EPOCH   = 228
BSTAR          = -.38584821E-2
MEAN_MOTION_DOT = -.1693183E-1
MEAN_MOTION_DDOT = .83094428E-3

CCSDS_OMM_VERS = 2.0
CREATION_DATE  = 
ORIGINATOR     = 

OBJECT_NAME    = STARLINK-36619
OBJECT_ID      = 2026-020AE
CENTER_NAME    = EARTH
REF_FRAME      = TEME
TIME_SYSTEM    = UTC
MEAN_ELEMENT_THEORY = SGP/SGP4

EPOCH          = 2026-02-05T22:00:03.000096
MEAN_MOTION    = 15.96484085
ECCENTRICITY   = .00015736
INCLINATION    = 43.0004
RA_OF_ASC_NODE = 335.5852
ARG_OF_PERICENTER = 259.4376
MEAN_ANOMALY   = 257.6295

EPHEMERIS_TYPE = 0
CLASSIFICATION_TYPE = U
NORAD_CAT_ID   = 67645
ELEMENT_SET_NO = 999
REV_AT_EPOCH   = 228
BSTAR          = -.38992007E-2
MEAN_MOTION_DOT = -.1696338E-1
MEAN_MOTION_DDOT = .83245098E-3

CCSDS_OMM_VERS = 2.0
CREATION_DATE  = 
ORIGINATOR     = 

OBJECT_NAME    = ALSAT-3B
OBJECT_ID      = 2026-021A
CENTER_NAME    = EARTH
REF_FRAME      = TEME
TIME_SYSTEM    = UTC
MEAN_ELEMENT_THEORY = SGP/SGP4

EPOCH          = 2026-02-05T22:13:18.772608
MEAN_MOTION    = 15.23462404
ECCENTRICITY   = .0011412
INCLINATION    = 97.4726
RA_OF_ASC_NODE = 111.3982
ARG_OF_PERICENTER = 243.7729
MEAN_ANOMALY   = 116.2335

EPHEMERIS_TYPE = 0
CLASSIFICATION_TYPE = U
NORAD_CAT_ID   = 67646
ELEMENT_SET_NO = 999
REV_AT_EPOCH   = 88
BSTAR          = .41982574E-3
MEAN_MOTION_DOT = .9958E-4
MEAN_MOTION_DDOT = 0

CCSDS_OMM_VERS = 2.0
CREATION_DATE  = 
ORIGINATOR     = 

OBJECT_NAME    = CZ-2C R/B
OBJECT_ID      = 2026-021B
CENTER_NAME    = EARTH
REF_FRAME      = TEME
TIME_SYSTEM    = UTC
MEAN_ELEMENT_THEORY = SGP/SGP4

EPOCH          = 2026-02-05T22:15:53.086464
MEAN_MOTION    = 15.23194697
ECCENTRICITY   = .01542495
INCLINATION    = 97.6566
RA_OF_ASC_NODE = 111.7558
ARG_OF_PERICENTER = 121.5076
MEAN_ANOMALY   = 240.1335

EPHEMERIS_TYPE = 0
CLASSIFICATION_TYPE = U
NORAD_CAT_ID   = 67647
ELEMENT_SET_NO = 999
REV_AT_EPOCH   = 86
BSTAR          = .56950627E-3
MEAN_MOTION_DOT = .18782E-3
MEAN_MOTION_DDOT = 0

CCSDS_OMM_VERS = 2.0
CREATION_DATE  = 
ORIGINATOR     = 

OBJECT_NAME    = 2026-023E
OBJECT_ID      = 2026-023E
CENTER_NAME    = EARTH
REF_FRAME      = TEME
TIME_SYSTEM    = UTC
MEAN_ELEMENT_THEORY = SGP/SGP4

EPOCH          = 2026-02-06T01:01:39.423360
MEAN_MOTION    = 15.22213970
ECCENTRICITY   = .0018142
INCLINATION    = 96.6391
RA_OF_ASC_NODE = 113.6651
ARG_OF_PERICENTER = 239.5703
MEAN_ANOMALY   = 120.3743

EPHEMERIS_TYPE = 0
CLASSIFICATION_TYPE = U
NORAD_CAT_ID   = 67678
ELEMENT_SET_NO = 999
REV_AT_EPOCH   = 3
BSTAR          = .28625E-3
MEAN_MOTION_DOT = .6547E-4
MEAN_MOTION_DDOT = 0

